OBJECT_NAME,OBJECT_ID,EPOCH,MEAN_MOTION,ECCENTRICITY,INCLINATION,RA_OF_ASC_NODE,ARG_OF_PERICENTER,MEAN_ANOMALY,EPHEMERIS_TYPE,CLASSIFICATION_TYPE,NORAD_CAT_ID,ELEMENT_SET_NO,REV_AT_EPOCH,BSTAR,MEAN_MOTION_DOT,MEAN_MOTION_DDOT
STARLINK-34177,2025-113A,2026-06-15T18:53:45.150432,15.31716026,.00012379,53.1606,354.8278,17.3820,342.7224,0,U,64170,999,6009,.59038818E-3,.18009E-3,0
STARLINK-34228,2025-113B,2026-06-15T20:07:33.217824,15.31707288,.00010329,53.1609,354.4297,94.8123,265.2996,0,U,64171,999,6010,.42133022E-3,.12735E-3,0
STARLINK-34233,2025-113C,2026-06-15T19:40:48.090720,15.31700751,.00006605,53.1589,355.0239,93.1761,266.9316,0,U,64172,999,6009,.49506985E-3,.15029E-3,0
STARLINK-34172,2025-113D,2026-06-15T20:00:49.764384,15.31701999,.00015233,53.1590,354.3996,147.3749,212.7347,0,U,64173,999,6006,.47737733E-3,.14478E-3,0
STARLINK-34202,2025-113E,2026-06-15T20:15:38.203488,15.30200227,.00011401,53.1611,355.1673,78.9006,281.2123,0,U,64174,999,6009,.31803817E-3,.9072E-4,0
STARLINK-34231,2025-113F,2026-06-15T19:34:04.817856,15.31704035,.00010641,53.1589,354.9924,88.2855,271.8269,0,U,64175,999,6009,.25747392E-3,.7634E-4,0
STARLINK-34191,2025-113G,2026-06-15T20:17:04.647552,15.34393625,.00011724,53.1611,353.7586,73.1229,286.9902,0,U,64176,999,6011,.39823143E-3,.13099E-3,0
STARLINK-34164,2025-113H,2026-06-15T19:15:01.020960,15.30202370,.00007928,53.1619,355.6215,59.2245,300.8834,0,U,64177,999,6008,.77640539E-3,.22708E-3,0
STARLINK-34227,2025-113J,2026-06-15T20:20:12.056064,15.30196077,.00013166,53.1620,355.1887,70.7039,289.4104,0,U,64178,999,6009,.65139318E-3,.1898E-3,0
STARLINK-34194,2025-113K,2026-06-15T19:37:41.203200,15.34387386,.00009096,53.1587,353.5901,84.1772,275.9335,0,U,64179,999,6011,.71809996E-3,.23954E-3,0
STARLINK-34000,2025-113L,2026-06-15T19:58:54.972480,15.30203713,.00014698,53.1591,355.0922,143.5238,216.5863,0,U,64180,999,6005,.62422353E-3,.18176E-3,0
STARLINK-33917,2025-113M,2026-06-15T19:02:51.797184,15.30201688,.00012801,53.1619,355.5635,77.2482,282.8662,0,U,64181,999,6008,.617611E-3,.17978E-3,0
STARLINK-34131,2025-113N,2026-06-15T20:17:09.791808,15.30183890,.00011719,53.1611,355.1717,95.5672,264.5462,0,U,64182,999,6005,.34820876E-3,.9963E-4,0
STARLINK-34188,2025-113P,2026-06-15T19:27:19.719360,15.31682665,.000138,53.1594,354.9640,109.3404,250.7747,0,U,64183,999,6009,.21142482E-3,.6198E-4,0
STARLINK-34197,2025-113Q,2026-06-15T19:10:27.436224,15.30200331,.00010598,53.1615,355.6009,66.0837,294.0274,0,U,64184,999,6008,.4666375E-3,.13487E-3,0
STARLINK-34063,2025-113R,2026-06-15T19:13:54.888672,15.31719219,.00010589,53.1604,354.9058,95.2123,264.8999,0,U,64185,999,6009,.40214776E-3,.12142E-3,0
STARLINK-34200,2025-113S,2026-06-15T20:14:16.180512,15.31710716,.00011111,53.1611,354.4552,89.7984,270.3145,0,U,64186,999,6010,.63255272E-3,.19321E-3,0
STARLINK-33934,2025-113T,2026-06-15T18:56:47.094144,15.30198542,.00010773,53.1626,355.5393,71.6463,288.4655,0,U,64187,999,6004,.63317877E-3,.18439E-3,0
STARLINK-33929,2025-113U,2026-06-15T18:53:44.386656,15.30205967,.0000969,53.1619,355.5225,72.2074,287.9033,0,U,64188,999,6008,.62910348E-3,.18322E-3,0
STARLINK-33872,2025-113V,2026-06-15T19:28:34.209120,15.34468659,.00017785,53.1592,353.5461,137.5248,222.5892,0,U,64189,999,6007,.12134446E-2,.40936E-3,0
STARLINK-34214,2025-113W,2026-06-15T19:11:58.631424,15.30204458,.00010682,53.1613,355.6023,80.6813,279.4308,0,U,64190,999,6008,.53917617E-3,.15646E-3,0
STARLINK-34222,2025-113X,2026-06-15T19:19:32.799936,15.30270443,.00008591,53.1605,355.6321,97.0517,263.0581,0,U,64191,999,6004,.11627807E-2,.34313E-3,0
STARLINK-34265,2025-113Y,2026-06-15T19:01:20.258976,15.30210614,.00011297,53.1624,355.5580,72.8876,287.2249,0,U,64192,999,6004,.69919363E-3,.20413E-3,0
STARLINK-34245,2025-113Z,2026-06-15T19:58:53.720544,15.34395287,.00012463,53.1597,353.6806,126.4673,233.6445,0,U,64193,999,6007,.56327043E-3,.18699E-3,0
STARLINK-34237,2025-113AA,2026-06-15T19:00:28.709280,15.31710677,.00015871,53.1608,354.8443,79.4306,280.6874,0,U,64194,999,6005,.58492258E-3,.17835E-3,0
STARLINK-33857,2025-113AB,2026-06-15T19:57:23.804928,15.30199773,.00014503,53.1582,355.0888,137.8672,222.2441,0,U,64195,999,6005,.51072414E-3,.14797E-3,0
STARLINK-34173,2025-113AC,2026-06-15T19:20:36.303072,15.31698350,.00012731,53.1590,354.9325,101.9656,258.1488,0,U,64196,999,6009,-.53931127E-3,-.17062E-3,0
SHIJIAN-26 (SJ-26),2025-115A,2026-06-16T05:03:07.759872,15.23672324,.00187,97.4559,245.7499,0.9189,359.2079,0,U,64199,999,5829,.18434E-3,.4369E-4,0
NAVSTAR 84 (USA 545),2025-116A,2026-06-12T09:20:58.319232,2.00576015,.00085633,55.2312,31.3239,338.8161,228.7168,0,U,64202,999,777,0,-.65E-6,0
STARLINK-33966,2025-117A,2026-06-16T02:22:30.665856,15.30203242,.0001408,53.1617,302.4357,65.6436,294.4712,0,U,64203,999,5962,.66363E-3,.19349E-3,0
STARLINK-34331,2025-117B,2026-06-16T01:40:58.031904,15.34394321,.0001161,53.1602,302.2521,74.2809,285.8322,0,U,64204,999,5959,.70757E-3,.23601E-3,0
STARLINK-34251,2025-117C,2026-06-15T16:09:05.983488,15.34387633,.00011662,53.1607,304.0376,75.4082,284.7049,0,U,64205,999,5953,.86072793E-3,.28805E-3,0
STARLINK-34311,2025-117D,2026-06-16T02:02:10.314240,15.34397105,.0000924,53.1599,302.3428,91.8725,268.2383,0,U,64206,999,5962,.72049E-3,.24042E-3,0
STARLINK-34324,2025-117E,2026-06-16T02:17:57.094080,15.30197046,.0001538,53.1628,302.4127,74.2464,285.8706,0,U,64207,999,5856,.46311E-3,.1338E-3,0
STARLINK-34327,2025-117F,2026-06-16T01:56:40.433856,15.30201191,.0001242,53.1600,302.3169,73.5079,286.6059,0,U,64208,999,5855,.4941E-3,.14303E-3,0
STARLINK-33944,2025-117G,2026-06-16T02:10:21.380736,15.30196899,.000129,53.1614,302.3863,78.2508,281.8637,0,U,64209,999,5962,.53799E-3,.15607E-3,0
STARLINK-34310,2025-117H,2026-06-16T01:59:42.476064,15.30208974,.0001123,53.1603,302.3330,91.5653,268.5476,0,U,64210,999,5959,.53058E-3,.15392E-3,0
STARLINK-34258,2025-117J,2026-06-15T22:18:14.925024,15.34190834,.0000993,53.1601,302.7979,99.7337,260.3777,0,U,64211,999,5957,.76447E-2,.265473E-2,0
STARLINK-34284,2025-117K,2026-06-16T01:52:06.517344,15.30207419,.0001148,53.1593,302.2967,81.7083,278.4048,0,U,64212,999,5959,.77702E-3,.2273E-3,0
STARLINK-34332,2025-117L,2026-06-15T16:12:07.661088,15.34390943,.00013931,53.1609,304.0543,89.5255,270.5907,0,U,64213,999,5956,.60099554E-3,.19978E-3,0
STARLINK-34283,2025-117M,2026-06-15T16:17:29.371488,15.34386043,.00010272,53.1570,302.6600,71.8367,288.2747,0,U,64214,999,5955,.56623489E-3,.18794E-3,0
STARLINK-34349,2025-117N,2026-06-16T01:37:55.574976,15.34425953,.0001216,53.1606,302.2358,80.0063,280.1077,0,U,64215,999,5959,.12951E-2,.4367E-3,0
STARLINK-34296,2025-117P,2026-06-16T02:14:54.481632,15.30199650,.0001322,53.1607,302.3976,85.1918,274.9233,0,U,64216,999,5962,.5208E-3,.15097E-3,0
STARLINK-34320,2025-117Q,2026-06-16T01:43:59.740608,15.34395234,.0001148,53.1596,302.2660,75.6148,284.4982,0,U,64217,999,5959,.80141E-3,.26793E-3,0
STARLINK-34300,2025-117R,2026-06-16T02:01:13.559808,15.30198472,.0000787,53.1593,302.3425,108.4210,251.6877,0,U,64218,999,5959,.53656E-3,.15565E-3,0
STARLINK-34323,2025-117S,2026-06-16T02:08:49.497792,15.30201520,.0000948,53.1615,302.3660,85.7897,274.3212,0,U,64219,999,5962,.72072E-3,.21048E-3,0
STARLINK-34328,2025-117T,2026-06-16T04:00:01.998720,15.34383413,.0001032,53.1602,301.9803,91.8713,348.9642,0,U,64220,999,590,.10342E-2,.3471E-3,0
STARLINK-34326,2025-117U,2026-06-16T01:56:07.050624,15.34392984,.0001191,53.1608,302.3159,74.6037,285.5097,0,U,64221,999,5962,.56922E-3,.189E-3,0
STARLINK-34318,2025-117V,2026-06-15T16:06:04.067424,15.34395198,.00010086,53.1607,304.0236,83.6620,276.4498,0,U,64222,999,5953,.43014523E-3,.14182E-3,0
STARLINK-34337,2025-117W,2026-06-16T01:50:03.330816,15.34396904,.0001087,53.1611,302.2889,74.4163,285.6960,0,U,64223,999,5959,.66276E-3,.2208E-3,0
STARLINK-34304,2025-117X,2026-06-16T02:19:26.467104,15.30214989,.0001028,53.1607,302.4151,82.4845,277.6272,0,U,64224,999,5962,.42204E-3,.12167E-3,0
STARLINK-34289,2025-117Y,2026-06-16T01:47:01.354272,15.34394519,.0001446,53.1617,302.2749,105.4501,254.6661,0,U,64225,999,5962,.57006E-3,.18929E-3,0
STARLINK-34347,2025-117Z,2026-06-15T16:45:27.667296,15.34389920,.00010498,53.1617,304.1897,73.8343,286.2776,0,U,64226,999,5953,.10174987E-2,.34147E-3,0
STARLINK-34330,2025-117AA,2026-06-16T02:25:32.620800,15.30198716,.0001432,53.1625,302.4378,79.7034,280.4129,0,U,64227,999,5959,.52059E-3,.1509E-3,0
STARLINK-34167,2025-117AB,2026-06-16T01:31:11.191008,15.34370485,.0000877,53.1584,300.7907,66.9391,293.1704,0,U,64228,999,5964,.51868E-3,.17172E-3,0
STARLINK-34241,2025-117AC,2026-06-15T16:00:01.240992,15.34394481,.00009203,53.1601,304.0615,80.8637,279.2470,0,U,64229,999,5956,.58846225E-3,.19554E-3,0
GLOBAL-32,2025-118B,2026-06-16T03:44:34.962144,15.38556658,.0013804,58.9925,136.6199,41.5826,318.6297,0,U,64231,999,5808,.25831E-3,.9624E-4,0
STARLINK-11686 [DTC],2025-119A,2026-06-16T04:39:59.611680,15.70941540,.0004606,43.0006,335.6617,280.4231,79.6117,0,U,64233,999,6073,.13601E-2,.178703E-2,0
STARLINK-11682 [DTC],2025-119B,2026-06-15T18:20:42.923616,15.70895319,.00023758,43.0005,338.4616,258.9651,101.0950,0,U,64234,999,6066,.10864169E-2,.141691E-2,0
STARLINK-11675 [DTC],2025-119C,2026-06-16T04:15:45.927360,15.70970383,.0001596,43.0002,335.5237,297.7881,62.2824,0,U,64235,999,6073,.1887E-2,.250489E-2,0
STARLINK-11691 [DTC],2025-119D,2026-06-16T03:52:49.543392,15.70936482,.0001882,42.9981,335.3929,290.6053,69.4613,0,U,64236,999,6073,.22988E-2,.30692E-2,0
STARLINK-11670 [DTC],2025-119E,2026-06-16T04:38:41.454240,15.70913166,.0002776,43.0012,335.6513,273.6505,86.4045,0,U,64237,999,6073,.12982E-2,.170119E-2,0
STARLINK-11708 [DTC],2025-119F,2026-06-15T18:05:25.407456,15.70916286,.00024611,42.9993,338.3744,259.6876,100.3714,0,U,64238,999,6066,.13459161E-2,.176541E-2,0
STARLINK-11683 [DTC],2025-119G,2026-06-15T12:21:56.314368,15.70943043,.00022472,43.0004,339.1390,288.8718,71.1905,0,U,64239,999,6063,.10676251E-2,.139473E-2,0
